[{"OBJECT_NAME":"STARLINK-34584","OBJECT_ID":"2025-142B","EPOCH":"2025-09-08T06:00:02.000160","MEAN_MOTION":15.33116062,"ECCENTRICITY":0.00036765,"INCLINATION":69.9991,"RA_OF_ASC_NODE":54.9813,"ARG_OF_PERICENTER":268.7075,"MEAN_ANOMALY":304.0146,"EPHEMERIS_TYPE":0,"CLASSIFICATION_TYPE":"U","NORAD_CAT_ID":64697,"ELEMENT_SET_NO":999,"REV_AT_EPOCH":590,"BSTAR":-0.062748865,"MEAN_MOTION_DOT":-0.01811609,"MEAN_MOTION_DDOT":0},{"OBJECT_NAME":"STARLINK-34535","OBJECT_ID":"2025-142C","EPOCH":"2025-09-08T06:00:02.000160","MEAN_MOTION":15.3589984,"ECCENTRICITY":0.00031533,"INCLINATION":70.0003,"RA_OF_ASC_NODE":54.9303,"ARG_OF_PERICENTER":282.4196,"MEAN_ANOMALY":336.5381,"EPHEMERIS_TYPE":0,"CLASSIFICATION_TYPE":"U","NORAD_CAT_ID":64698,"ELEMENT_SET_NO":999,"REV_AT_EPOCH":574,"BSTAR":0.0020154337,"MEAN_MOTION_DOT":0.00071155,"MEAN_MOTION_DDOT":0},{"OBJECT_NAME":"STARLINK-34600","OBJECT_ID":"2025-142D","EPOCH":"2025-09-07T19:55:40.296864","MEAN_MOTION":15.42708723,"ECCENTRICITY":0.0002845,"INCLINATION":70.0009,"RA_OF_ASC_NODE":56.1665,"ARG_OF_PERICENTER":270.9055,"MEAN_ANOMALY":89.18,"EPHEMERIS_TYPE":0,"CLASSIFICATION_TYPE":"U","NORAD_CAT_ID":64699,"ELEMENT_SET_NO":999,"REV_AT_EPOCH":1207,"BSTAR":0.0016550183,"MEAN_MOTION_DOT":0.00073006,"MEAN_MOTION_DDOT":0},{"OBJECT_NAME":"STARLINK-34560","OBJECT_ID":"2025-142E","EPOCH":"2025-09-08T03:54:11.701152","MEAN_MOTION":15.42705128,"ECCENTRICITY":0.0002695,"INCLINATION":70.0022,"RA_OF_ASC_NODE":55.3206,"ARG_OF_PERICENTER":269.5741,"MEAN_ANOMALY":90.5132,"EPHEMERIS_TYPE":0,"CLASSIFICATION_TYPE":"U","NORAD_CAT_ID":64700,"ELEMENT_SET_NO":999,"REV_AT_EPOCH":1208,"BSTAR":0.0013851029,"MEAN_MOTION_DOT":0.00060972,"MEAN_MOTION_DDOT":0},{"OBJECT_NAME":"STARLINK-34576","OBJECT_ID":"2025-142F","EPOCH":"2025-09-08T04:40:52.855680","MEAN_MOTION":15.42704424,"ECCENTRICITY":0.00029827,"INCLINATION":70.0025,"RA_OF_ASC_NODE":55.027,"ARG_OF_PERICENTER":268.3661,"MEAN_ANOMALY":91.7179,"EPHEMERIS_TYPE":0,"CLASSIFICATION_TYPE":"U","NORAD_CAT_ID":64701,"ELEMENT_SET_NO":999,"REV_AT_EPOCH":1212,"BSTAR":0.0016258329,"MEAN_MOTION_DOT":0.00071694,"MEAN_MOTION_DDOT":0},{"OBJECT_NAME":"STARLINK-34322","OBJECT_ID":"2025-142G","EPOCH":"2025-09-08T06:00:02.000160","MEAN_MOTION":15.36461217,"ECCENTRICITY":0.00026724,"INCLINATION":70.0001,"RA_OF_ASC_NODE":54.8701,"ARG_OF_PERICENTER":263.9754,"MEAN_ANOMALY":47.7712,"EPHEMERIS_TYPE":0,"CLASSIFICATION_TYPE":"U","NORAD_CAT_ID":64702,"ELEMENT_SET_NO":999,"REV_AT_EPOCH":586,"BSTAR":0.0020366902,"MEAN_MOTION_DOT":0.00073231,"MEAN_MOTION_DDOT":0},{"OBJECT_NAME":"STARLINK-34470","OBJECT_ID":"2025-142H","EPOCH":"2025-09-07T21:17:21.531264","MEAN_MOTION":15.42660692,"ECCENTRICITY":0.00033554,"INCLINATION":70.0002,"RA_OF_ASC_NODE":55.9611,"ARG_OF_PERICENTER":291.5568,"MEAN_ANOMALY":68.5256,"EPHEMERIS_TYPE":0,"CLASSIFICATION_TYPE":"U","NORAD_CAT_ID":64703,"ELEMENT_SET_NO":999,"REV_AT_EPOCH":1206,"BSTAR":0.00096315412,"MEAN_MOTION_DOT":0.00042189,"MEAN_MOTION_DDOT":0},{"OBJECT_NAME":"STARLINK-34405","OBJECT_ID":"2025-142J","EPOCH":"2025-09-08T06:00:02.000160","MEAN_MOTION":15.34845584,"ECCENTRICITY":0.00039528,"INCLINATION":69.9997,"RA_OF_ASC_NODE":55.1386,"ARG_OF_PERICENTER":270.7536,"MEAN_ANOMALY":160.7887,"EPHEMERIS_TYPE":0,"CLASSIFICATION_TYPE":"U","NORAD_CAT_ID":64704,"ELEMENT_SET_NO":999,"REV_AT_EPOCH":590,"BSTAR":-0.04706636,"MEAN_MOTION_DOT":-0.01445511,"MEAN_MOTION_DDOT":0},{"OBJECT_NAME":"STARLINK-34406","OBJECT_ID":"2025-142K","EPOCH":"2025-09-08T06:00:02.000160","MEAN_MOTION":15.31133034,"ECCENTRICITY":0.00032031,"INCLINATION":69.9991,"RA_OF_ASC_NODE":55.1321,"ARG_OF_PERICENTER":268.0234,"MEAN_ANOMALY":171.4017,"EPHEMERIS_TYPE":0,"CLASSIFICATION_TYPE":"U","NORAD_CAT_ID":64705,"ELEMENT_SET_NO":999,"REV_AT_EPOCH":580,"BSTAR":-0.062765668,"MEAN_MOTION_DOT":-0.01712401,"MEAN_MOTION_DDOT":0},{"OBJECT_NAME":"STARLINK-34559","OBJECT_ID":"2025-142L","EPOCH":"2025-09-08T06:00:02.000160","MEAN_MOTION":15.32880219,"ECCENTRICITY":0.00031163,"INCLINATION":69.9998,"RA_OF_ASC_NODE":55.0607,"ARG_OF_PERICENTER":269.2444,"MEAN_ANOMALY":233.0768,"EPHEMERIS_TYPE":0,"CLASSIFICATION_TYPE":"U","NORAD_CAT_ID":64706,"ELEMENT_SET_NO":999,"REV_AT_EPOCH":570,"BSTAR":-0.063314025,"MEAN_MOTION_DOT":-0.01813765,"MEAN_MOTION_DDOT":0},{"OBJECT_NAME":"STARLINK-34316","OBJECT_ID":"2025-142M","EPOCH":"2025-09-05T05:23:40.966080","MEAN_MOTION":15.42251923,"ECCENTRICITY":0.00044188,"INCLINATION":70.0003,"RA_OF_ASC_NODE":63.1233,"ARG_OF_PERICENTER":2.5735,"MEAN_ANOMALY":357.5468,"EPHEMERIS_TYPE":0,"CLASSIFICATION_TYPE":"U","NORAD_CAT_ID":64707,"ELEMENT_SET_NO":999,"REV_AT_EPOCH":1184,"BSTAR":0.00095026996,"MEAN_MOTION_DOT":0.00041056,"MEAN_MOTION_DDOT":0},{"OBJECT_NAME":"STARLINK-34563","OBJECT_ID":"2025-142N","EPOCH":"2025-09-08T06:00:02.000160","MEAN_MOTION":15.25421118,"ECCENTRICITY":0.00030221,"INCLINATION":69.9999,"RA_OF_ASC_NODE":55.0702,"ARG_OF_PERICENTER":274.4364,"MEAN_ANOMALY":213.8687,"EPHEMERIS_TYPE":0,"CLASSIFICATION_TYPE":"U","NORAD_CAT_ID":64708,"ELEMENT_SET_NO":999,"REV_AT_EPOCH":590,"BSTAR":-0.08349649,"MEAN_MOTION_DOT":-0.01920483,"MEAN_MOTION_DDOT":0},{"OBJECT_NAME":"STARLINK-34499","OBJECT_ID":"2025-142P","EPOCH":"2025-09-08T06:00:02.000160","MEAN_MOTION":15.34683923,"ECCENTRICITY":0.00035369,"INCLINATION":69.9999,"RA_OF_ASC_NODE":54.9819,"ARG_OF_PERICENTER":276.3639,"MEAN_ANOMALY":296.7216,"EPHEMERIS_TYPE":0,"CLASSIFICATION_TYPE":"U","NORAD_CAT_ID":64709,"ELEMENT_SET_NO":999,"REV_AT_EPOCH":580,"BSTAR":0.0020524739,"MEAN_MOTION_DOT":0.000697,"MEAN_MOTION_DDOT":0},{"OBJECT_NAME":"STARLINK-34447","OBJECT_ID":"2025-142Q","EPOCH":"2025-09-08T04:23:30.561504","MEAN_MOTION":15.42688519,"ECCENTRICITY":0.00029198,"INCLINATION":70.0024,"RA_OF_ASC_NODE":54.9824,"ARG_OF_PERICENTER":266.5264,"MEAN_ANOMALY":93.5584,"EPHEMERIS_TYPE":0,"CLASSIFICATION_TYPE":"U","NORAD_CAT_ID":64710,"ELEMENT_SET_NO":999,"REV_AT_EPOCH":1230,"BSTAR":0.0014615312,"MEAN_MOTION_DOT":0.00064338,"MEAN_MOTION_DDOT":0},{"OBJECT_NAME":"STARLINK-34312","OBJECT_ID":"2025-142R","EPOCH":"2025-09-08T06:00:02.000160","MEAN_MOTION":15.26875952,"ECCENTRICITY":0.00036102,"INCLINATION":70,"RA_OF_ASC_NODE":54.8921,"ARG_OF_PERICENTER":269.2066,"MEAN_ANOMALY":21.3026,"EPHEMERIS_TYPE":0,"CLASSIFICATION_TYPE":"U","NORAD_CAT_ID":64711,"ELEMENT_SET_NO":999,"REV_AT_EPOCH":591,"BSTAR":-0.068306115,"MEAN_MOTION_DOT":-0.01641337,"MEAN_MOTION_DDOT":0},{"OBJECT_NAME":"STARLINK-34515","OBJECT_ID":"2025-142S","EPOCH":"2025-09-08T06:00:02.000160","MEAN_MOTION":15.36746176,"ECCENTRICITY":0.00033352,"INCLINATION":70,"RA_OF_ASC_NODE":54.9818,"ARG_OF_PERICENTER":276.3829,"MEAN_ANOMALY":296.4617,"EPHEMERIS_TYPE":0,"CLASSIFICATION_TYPE":"U","NORAD_CAT_ID":64712,"ELEMENT_SET_NO":999,"REV_AT_EPOCH":590,"BSTAR":0.0020543572,"MEAN_MOTION_DOT":0.00074564,"MEAN_MOTION_DDOT":0},{"OBJECT_NAME":"STARLINK-34583","OBJECT_ID":"2025-142T","EPOCH":"2025-09-08T06:00:02.000160","MEAN_MOTION":15.35398727,"ECCENTRICITY":0.00032169,"INCLINATION":70,"RA_OF_ASC_NODE":54.9575,"ARG_OF_PERICENTER":290.6146,"MEAN_ANOMALY":303.4489,"EPHEMERIS_TYPE":0,"CLASSIFICATION_TYPE":"U","NORAD_CAT_ID":64713,"ELEMENT_SET_NO":999,"REV_AT_EPOCH":580,"BSTAR":0.0020262695,"MEAN_MOTION_DOT":0.00070396,"MEAN_MOTION_DDOT":0},{"OBJECT_NAME":"STARLINK-34574","OBJECT_ID":"2025-142U","EPOCH":"2025-09-08T06:00:02.000160","MEAN_MOTION":15.25301679,"ECCENTRICITY":0.00034052,"INCLINATION":70.0001,"RA_OF_ASC_NODE":54.9607,"ARG_OF_PERICENTER":267.6519,"MEAN_ANOMALY":322.4385,"EPHEMERIS_TYPE":0,"CLASSIFICATION_TYPE":"U","NORAD_CAT_ID":64714,"ELEMENT_SET_NO":999,"REV_AT_EPOCH":575,"BSTAR":-0.07247365,"MEAN_MOTION_DOT":-0.01658491,"MEAN_MOTION_DDOT":0},{"OBJECT_NAME":"STARLINK-34533","OBJECT_ID":"2025-142V","EPOCH":"2025-09-08T06:00:02.000160","MEAN_MOTION":15.33412328,"ECCENTRICITY":0.00034017,"INCLINATION":69.9994,"RA_OF_ASC_NODE":55.1181,"ARG_OF_PERICENTER":272.8865,"MEAN_ANOMALY":178.9237,"EPHEMERIS_TYPE":0,"CLASSIFICATION_TYPE":"U","NORAD_CAT_ID":64715,"ELEMENT_SET_NO":999,"REV_AT_EPOCH":580,"BSTAR":-0.060878211,"MEAN_MOTION_DOT":-0.01777669,"MEAN_MOTION_DDOT":0},{"OBJECT_NAME":"STARLINK-34548","OBJECT_ID":"2025-142W","EPOCH":"2025-09-08T06:00:02.000160","MEAN_MOTION":15.34383211,"ECCENTRICITY":0.00035829,"INCLINATION":69.9999,"RA_OF_ASC_NODE":55.0782,"ARG_OF_PERICENTER":275.7016,"MEAN_ANOMALY":207.8774,"EPHEMERIS_TYPE":0,"CLASSIFICATION_TYPE":"U","NORAD_CAT_ID":64716,"ELEMENT_SET_NO":999,"REV_AT_EPOCH":570,"BSTAR":-0.049985625,"MEAN_MOTION_DOT":-0.01506038,"MEAN_MOTION_DDOT":0},{"OBJECT_NAME":"STARLINK-34568","OBJECT_ID":"2025-142X","EPOCH":"2025-09-08T06:00:02.000160","MEAN_MOTION":15.31074398,"ECCENTRICITY":0.00034335,"INCLINATION":69.9998,"RA_OF_ASC_NODE":55.0932,"ARG_OF_PERICENTER":272.2529,"MEAN_ANOMALY":200.0169,"EPHEMERIS_TYPE":0,"CLASSIFICATION_TYPE":"U","NORAD_CAT_ID":64717,"ELEMENT_SET_NO":999,"REV_AT_EPOCH":575,"BSTAR":-0.064273664,"MEAN_MOTION_DOT":-0.01746821,"MEAN_MOTION_DDOT":0},{"OBJECT_NAME":"STARLINK-34546","OBJECT_ID":"2025-142Y","EPOCH":"2025-09-08T06:00:02.000160","MEAN_MOTION":15.34315359,"ECCENTRICITY":0.00033687,"INCLINATION":69.9997,"RA_OF_ASC_NODE":55.0336,"ARG_OF_PERICENTER":274.4332,"MEAN_ANOMALY":253.3094,"EPHEMERIS_TYPE":0,"CLASSIFICATION_TYPE":"U","NORAD_CAT_ID":64718,"ELEMENT_SET_NO":999,"REV_AT_EPOCH":575,"BSTAR":-0.053763313,"MEAN_MOTION_DOT":-0.01629971,"MEAN_MOTION_DDOT":0},{"OBJECT_NAME":"STARLINK-34577","OBJECT_ID":"2025-142Z","EPOCH":"2025-09-08T04:55:40.018656","MEAN_MOTION":15.42711913,"ECCENTRICITY":0.00026232,"INCLINATION":70.0008,"RA_OF_ASC_NODE":55.0635,"ARG_OF_PERICENTER":275.4797,"MEAN_ANOMALY":84.6086,"EPHEMERIS_TYPE":0,"CLASSIFICATION_TYPE":"U","NORAD_CAT_ID":64719,"ELEMENT_SET_NO":999,"REV_AT_EPOCH":1214,"BSTAR":0.0010942899,"MEAN_MOTION_DOT":0.00048069,"MEAN_MOTION_DDOT":0}]
